NORAD_CAT_ID,OBJECT_NAME,OBJECT_TYPE,EPOCH,MEAN_MOTION,ECCENTRICITY,INCLINATION,RA_OF_ASC_NODE,ARG_OF_PERICENTER,MEAN_ANOMALY,BSTAR,MEAN_MOTION_DOT,MEAN_MOTION_DDOT,TLE_LINE0,TLE_LINE1,TLE_LINE2,SEMIMAJOR_AXIS,PERIOD,APOGEE,PERIGEE,DECAYED
52140.0,STARLINK-3682,PAYLOAD,2022-03-31 22:00:00,15.73247235,0.0001395999999999,53.2166,81.0802,74.1471,321.7327,0.00020052,0.00027671,0.0,0 STARLINK-3682,1 52140U 22029BE  22090.91667824  .00027671  00000-0  20052-3 0  9998,2 52140  53.2166  81.0802 0001396  74.1471 321.7327 15.73247235  2791,6727.761,91.53,350.565,348.686,0.0
52140.0,STARLINK-3682,PAYLOAD,2022-04-01 04:00:01,15.73295012,0.0001452,53.2168,79.8443,70.7444,301.9587,-0.00061505,-0.00086408,0.0,0 STARLINK-3682,1 52140U 22029BE  22091.16668981 -.00086408  00000-0 -61505-3 0  9994,2 52140  53.2168  79.8443 0001452  70.7444 301.9587 15.73295012  3294,6727.624,91.528,350.466,348.51199999999994,0.0
52140.0,STARLINK-3682,PAYLOAD,2022-04-01 14:00:01,15.73290401,0.0001132,53.2164,77.7823,65.9429,147.9214,-0.0010301,-0.00143301,0.0,0 STARLINK-3682,1 52140U 22029BE  22091.58334491 -.00143301  00000-0 -10301-2 0  9999,2 52140  53.2164  77.7823 0001132  65.9429 147.9214 15.73290401  2890,6727.637,91.528,350.264,348.741,0.0
52140.0,STARLINK-3682,PAYLOAD,2022-04-01 20:00:01,15.73193631,9.06e-05,53.2164,76.5437,73.6025,117.0166,-0.00021152,-0.00030189,0.0,0 STARLINK-3682,1 52140U 22029BE  22091.83334491 -.00030189  00000-0 -21152-3 0  9993,2 52140  53.2164  76.5437 0000906  73.6025 117.0166 15.73193631  3403,6727.913000000001,91.534,350.38800000000015,349.1690000000001,0.0
52140.0,STARLINK-3682,PAYLOAD,2022-04-01 22:00:00,15.73179959,9.38e-05,53.2166,76.1313,76.2689,226.5826,-8.3325e-05,-0.00012286,0.0,0 STARLINK-3682,1 52140U 22029BE  22091.91667824 -.00012286  00000-0 -83325-4 0  9990,2 52140  53.2166  76.1313 0000938  76.2689 226.5826 15.73179959  2959,6727.9519999999975,91.534,350.4480000000001,349.186,0.0
52140.0,STARLINK-3682,PAYLOAD,2022-04-02 12:00:00,15.73148477,0.0001203,53.2166,73.2468,66.7568,301.6789,0.00063832,0.00089727,0.0,0 STARLINK-3682,1 52140U 22029BE  22092.50001157  .00089727  00000-0  63832-3 0  9999,2 52140  53.2166  73.2468 0001203  66.7568 301.6789 15.73148477  3500,6728.042,91.536,350.716,349.098,0.0
52140.0,STARLINK-3682,PAYLOAD,2022-04-02 20:00:01,15.73207647,0.0001107999999999,53.2171,71.5953,79.9802,17.3591,-0.00020135,-0.0002878999999999,0.0,0 STARLINK-3682,1 52140U 22029BE  22092.83334491 -.00028790  00000-0 -20135-3 0  9999,2 52140  53.2171  71.5953 0001108  79.9802  17.3591 15.73207647  3559,6727.873000000001,91.533,350.4840000000001,348.99300000000005,0.0
52140.0,STARLINK-3682,PAYLOAD,2022-04-02 22:00:01,15.73212529,0.0001143,53.2173,71.1828,83.28,126.3556,-0.00035082,-0.00049591,0.0,0 STARLINK-3682,1 52140U 22029BE  22092.91668981 -.00049591  00000-0 -35082-3 0  9991,2 52140  53.2173  71.1828 0001143  83.2800 126.3556 15.73212529  3112,6727.859,91.532,350.49300000000005,348.955,0.0
52140.0,STARLINK-3682,PAYLOAD,2022-04-03 04:00:00,15.73222329,0.0001345,53.2174,69.9473,75.1635,111.1518,-0.00058596,-0.00082135,0.0,0 STARLINK-3682,1 52140U 22029BE  22093.16667824 -.00082135  00000-0 -58596-3 0  9990,2 52140  53.2174  69.9473 0001345  75.1635 111.1518 15.73222329  3618,6727.831999999999,91.532,350.601,348.792,0.0
52140.0,STARLINK-3682,PAYLOAD,2022-04-03 20:00:01,15.73195617,0.0001213,53.2173,66.64699999999999,84.0281,280.1343,0.00019901,0.00027395,0.0,0 STARLINK-3682,1 52140U 22029BE  22093.83335648  .00027395  00000-0  19901-3 0  9992,2 52140  53.2173  66.6470 0001213  84.0281 280.1343 15.73195617  3711,6727.908,91.533,350.589,348.957,0.0
52140.0,STARLINK-3682,PAYLOAD,2022-04-03 22:00:00,15.73230472,0.0001289,53.2176,66.2349,87.0861,29.2323,-0.00026088,-0.00037119,0.0,0 STARLINK-3682,1 52140U 22029BE  22093.91667824 -.00037119  00000-0 -26088-3 0  9996,2 52140  53.2176  66.2349 0001289  87.0861  29.2323 15.73230472  3264,6727.808000000001,91.531,350.541,348.806,0.0
52140.0,STARLINK-3682,PAYLOAD,2022-04-04 04:00:00,15.73215138,0.0001213,53.2174,64.9996,78.7118,14.3264,-0.00075381,-0.00105166,0.0,0 STARLINK-3682,1 52140U 22029BE  22094.16667824 -.00105166  00000-0 -75381-3 0  9992,2 52140  53.2174  64.9996 0001213  78.7118  14.3264 15.73215138  3760,6727.852,91.532,350.533,348.901,0.0
52140.0,STARLINK-3682,PAYLOAD,2022-04-04 12:00:00,15.73158179,0.000106,53.2174,63.3502,77.1605,104.7752,0.00038344,0.00053439,0.0,0 STARLINK-3682,1 52140U 22029BE  22094.50001157  .00053439  00000-0  38344-3 0  9992,2 52140  53.2174  63.3502 0001060  77.1605 104.7752 15.73158179  3824,6728.014,91.536,350.593,349.166,0.0
52140.0,STARLINK-3682,PAYLOAD,2022-04-04 14:00:01,15.73180388,0.0001059,53.2176,62.9371,81.577,212.5753,0.00020377,0.00028049,0.0,0 STARLINK-3682,1 52140U 22029BE  22094.58334491  .00028049  00000-0  20377-3 0  9996,2 52140  53.2176  62.9371 0001059  81.5770 212.5753 15.73180388  3371,6727.951,91.534,350.529,349.10400000000016,0.0
52140.0,STARLINK-3682,PAYLOAD,2022-04-04 22:00:00,15.73205046,0.0001226,53.2181,61.2867,91.9343,291.143,0.00020027,0.00027585,0.0,0 STARLINK-3682,1 52140U 22029BE  22094.91667824  .00027585  00000-0  20027-3 0  9998,2 52140  53.2181  61.2867 0001226  91.9343 291.1430 15.73205046  3426,6727.880999999999,91.533,350.571,348.921,0.0
52140.0,STARLINK-3682,PAYLOAD,2022-04-05 14:00:01,15.73243635,0.0001088,53.2179,57.9888,85.65700000000002,115.3626,-0.00090095,-0.00125424,0.0,0 STARLINK-3682,1 52140U 22029BE  22095.58335648 -.00125424  00000-0 -90095-3 0  9993,2 52140  53.2179  57.9888 0001088  85.6570 115.3626 15.73243635  3998,6727.771,91.531,350.36800000000005,348.904,0.0
52140.0,STARLINK-3682,PAYLOAD,2022-04-05 20:00:01,15.73149298,0.0001044,53.2178,56.7508,96.3612,81.3035,8.2601e-05,0.00010963,0.0,0 STARLINK-3682,1 52140U 22029BE  22095.83334491  .00010963  00000-0  82601-4 0  9990,2 52140  53.2178  56.7508 0001044  96.3612  81.3035 15.73149298  4033,6728.04,91.536,350.607,349.202,0.0
52140.0,STARLINK-3682,PAYLOAD,2022-04-05 22:00:00,15.73139704,0.0001035,53.218,56.3388,97.4418,192.4429,0.00029489,0.0004086,0.0,0 STARLINK-3682,1 52140U 22029BE  22095.91667824  .00040860  00000-0  29489-3 0  9991,2 52140  53.2180  56.3388 0001035  97.4418 192.4429 15.73139704  3596,6728.066999999999,91.537,350.62800000000016,349.236,0.0
52140.0,STARLINK-3682,PAYLOAD,2022-04-06 12:00:00,15.73224407,9.29e-05,53.2177,53.4539,85.8976,269.4996,-2.4527e-05,-4.063e-05,0.0,0 STARLINK-3682,1 52140U 22029BE  22096.50001157 -.00004063  00000-0 -24527-4 0  9994,2 52140  53.2177  53.4539 0000929  85.8976 269.4996 15.73224407  4139,6727.826,91.532,350.316,349.066,0.0
52140.0,STARLINK-3682,PAYLOAD,2022-04-06 14:00:01,15.73247188,9.66e-05,53.2179,53.0409,92.297,15.3323,-0.00035131,-0.0004973,0.0,0 STARLINK-3682,1 52140U 22029BE  22096.58334491 -.00049730  00000-0 -35131-3 0  9994,2 52140  53.2179  53.0409 0000966  92.2970  15.3323 15.73247188  3693,6727.761,91.53,350.276,348.976,0.0
52140.0,STARLINK-3682,PAYLOAD,2022-04-06 22:00:00,15.7320788,0.0001136,53.2183,51.3909,100.7338,95.8528,0.00042792,0.00059885,0.0,0 STARLINK-3682,1 52140U 22029BE  22096.91667824  .00059885  00000-0  42792-3 0  9991,2 52140  53.2183  51.3909 0001136 100.7338  95.8528 15.73207880  3715,6727.873000000001,91.533,350.50199999999984,348.973,0.0
52140.0,STARLINK-3682,PAYLOAD,2022-04-07 14:00:01,15.73180273,0.0001075,53.2181,48.0925,97.3455,277.1576,0.00040802,0.00056983,0.0,0 STARLINK-3682,1 52140U 22029BE  22097.58334491  .00056983  00000-0  40802-3 0  9992,2 52140  53.2181  48.0925 0001075  97.3455 277.1576 15.73180273  3722,6727.951,91.534,350.54,349.093,0.0
52140.0,STARLINK-3682,PAYLOAD,2022-04-07 20:00:01,15.73217413,0.0001106,53.218,46.8547,103.5461,247.6449,0.00055839,0.0007854,0.0,0 STARLINK-3682,1 52140U 22029BE  22097.83334491  .00078540  00000-0  55839-3 0  9999,2 52140  53.2180  46.8547 0001106 103.5461 247.6449 15.73217413  4346,6727.846,91.532,350.455,348.966,0.0
52140.0,STARLINK-3682,PAYLOAD,2022-04-07 22:00:00,15.73268122,0.0001111,53.2181,46.4428,103.5692,359.8511,-9.5955e-05,-0.00014103,0.0,0 STARLINK-3682,1 52140U 22029BE  22097.91667824 -.00014103  00000-0 -95955-4 0  9998,2 52140  53.2181  46.4428 0001111 103.5692 359.8511 15.73268122  3701,6727.701,91.529,350.31300000000016,348.819,0.0
52140.0,STARLINK-3682,PAYLOAD,2022-04-08 04:00:00,15.73264045,0.0001024,53.2178,45.2074,92.5166,347.6638,-0.00027267,-0.00038815,0.0,0 STARLINK-3682,1 52140U 22029BE  22098.16667824 -.00038815  00000-0 -27267-3 0  9992,2 52140  53.2178  45.2074 0001024  92.5166 347.6638 15.73264045  4398,6727.7130000000025,91.529,350.267,348.889,0.0
52140.0,STARLINK-3682,PAYLOAD,2022-04-08 14:00:03,15.73243568,0.0001148,53.2178,43.1438,101.8423,179.71099999999996,-0.00026281,-0.00037408,0.0,0 STARLINK-3682,1 52140U 22029BE  22098.58336806 -.00037408  00000-0 -26281-3 0  9993,2 52140  53.2178  43.1438 0001148 101.8423 179.7110 15.73243568  3717,6727.771,91.531,350.408,348.86400000000015,0.0
52140.0,STARLINK-3682,PAYLOAD,2022-04-08 22:00:00,15.73247236,0.0001131,53.2182,41.4942,106.7481,263.6047,-0.00084161,-0.00117335,0.0,0 STARLINK-3682,1 52140U 22029BE  22098.91667824 -.00117335  00000-0 -84161-3 0  9996,2 52140  53.2182  41.4942 0001131 106.7481 263.6047 15.73247236  3700,6727.761,91.53,350.386,348.865,0.0
52140.0,STARLINK-3682,PAYLOAD,2022-04-09 04:00:00,15.7311652,8.85e-05,53.2181,40.2589,100.196,246.8118,4.7936e-06,5.2e-07,0.0,0 STARLINK-3682,1 52140U 22029BE  22099.16667824  .00000052  00000-0  47936-5 0  9990,2 52140  53.2181  40.2589 0000885 100.1960 246.8118 15.73116520  4555,6728.1330000000025,91.538,350.594,349.403,0.0
52140.0,STARLINK-3682,PAYLOAD,2022-04-09 14:00:01,15.73078102,8.950000000000001e-05,53.218,38.1957,107.9422,80.1035,0.00034117,0.00047281,0.0,0 STARLINK-3682,1 52140U 22029BE  22099.58334491  .00047281  00000-0  34117-3 0  9997,2 52140  53.2180  38.1957 0000895 107.9422  80.1035 15.73078102  3726,6728.243,91.54,350.71,349.506,0.0
